GALAXY 34 (G-34)        
1 54027U 22128B   26041.45141838  .00000067  00000+0  00000+0 0  9991
2 54027   0.0121  84.2513 0001541 237.7213 212.0433  1.00273405 12643
ASO-S                   
1 54029U 22129A   26041.52908603  .00000197  00000+0  59724-4 0  9999
2 54029  98.2772  48.4187 0015470 119.5876 240.6863 14.51997446177041
COSMOS 2559 [GLONASS-K] 
1 54031U 22130A   26041.22795800 -.00000076  00000+0  00000+0 0  9999
2 54031  64.3456 319.0475 0010682 185.5627 174.4590  2.13101289 25984
ANGOSAT 2               
1 54033U 22131A   26041.33892446  .00000144  00000+0  00000+0 0  9993
2 54033   0.0123 170.7880 0000605 280.4757 194.1375  1.00272369 12203
HJ-2E                   
1 54035U 22132A   26041.54076817  .00008829  00000+0  40687-3 0  9992
2 54035  97.3830  48.3695 0023349  92.3492 268.0417 15.20260313185166
YAOGAN-36 02A           
1 54042U 22133A   26041.53693662  .00013147  00000+0  53896-3 0  9998
2 54042  35.0036 196.2285 0028739 148.6530 211.5905 15.23071177185431
YAOGAN-36 02B           
1 54043U 22133B   26041.53650317  .00011842  00000+0  40587-3 0  9992
2 54043  34.9950 196.6965 0003583  34.1063 325.9883 15.29378570185421
YAOGAN-36 02C           
1 54045U 22133D   26041.53010679  .00037881  00000+0  93507-3 0  9996
2 54045  34.9901 176.3402 0011366 110.8047 249.3891 15.39430542185632
EUTELSAT HOTBIRD 13F    
1 54048U 22134A   26041.33693110  .00000095  00000+0  00000+0 0  9994
2 54048   0.0564 284.1325 0002126  81.5515 268.9988  1.00270818 12100
STARLINK-5195           
1 54051U 22136A   26041.48592594  .00001877  00000+0  13594-3 0  9995
2 54051  53.2167 106.4917 0000940  88.8649 271.2451 15.08843204182733
STARLINK-5189           
1 54052U 22136B   26041.37178281 -.00000138  00000+0  94068-5 0  9994
2 54052  53.2173  66.5697 0001379  87.7237 272.3913 15.08844864183289
STARLINK-5176           
1 54053U 22136C   26041.48222428  .00000854  00000+0  71770-4 0  9998
2 54053  53.2173 106.4675 0001399  88.3202 271.7951 15.08836612182737
STARLINK-5163           
1 54054U 22136D   26041.47486269 -.00000966  00000+0 -42596-4 0  9993
2 54054  53.2180 106.4163 0001429 111.0723 249.0422 15.08832219182734
STARLINK-5158           
1 54055U 22136E   26041.41231820 -.00002960  00000+0 -16801-3 0  9994
2 54055  53.2171 106.7402 0001204  72.1969 287.9154 15.08829746182727
STARLINK-5226           
1 54056U 22136F   26041.48951223  .00005957  00000+0  39185-3 0  9995
2 54056  53.2163 105.8151 0001189  92.5255 267.5874 15.08858127182746
STARLINK-5167           
1 54058U 22136H   26041.39755917 -.00001581  00000+0 -81261-4 0  9993
2 54058  53.2171 106.6443 0001469 116.9554 243.1588 15.08844617182723
STARLINK-5173           
1 54059U 22136J   26041.40124805 -.00001387  00000+0 -69035-4 0  9991
2 54059  53.2169 106.6683 0001462 110.7431 249.3718 15.08842341182721
STARLINK-5169           
1 54060U 22136K   26041.49228148  .00002292  00000+0  16202-3 0  9998
2 54060  53.2172  75.8714 0001335  88.5664 271.5481 15.08839368183166
STARLINK-5209           
1 54061U 22136L   26041.35840950  .00000138  00000+0  26743-4 0  9994
2 54061  53.2178  71.4280 0001479  96.8900 263.2260 15.08839906183214
STARLINK-5170           
1 54062U 22136M   26041.46011416 -.00000697  00000+0 -25694-4 0  9990
2 54062  53.2157 106.3258 0001273  98.5260 261.5877 15.08845128182739
STARLINK-5172           
1 54064U 22136P   26041.34100137  .00000476  00000+0  47975-4 0  9997
2 54064  53.2178  62.0759 0001428 103.4911 256.6241 15.08840014183346
STARLINK-5187           
1 54065U 22136Q   26041.44906258 -.00000318  00000+0 -18714-5 0  9994
2 54065  53.2172 106.2621 0001289  85.8828 274.2311 15.08843179182736
STARLINK-5151           
1 54066U 22136R   26041.45274734 -.00001088  00000+0 -50280-4 0  9991
2 54066  53.2169 106.2895 0001406 106.7342 253.3805 15.08845377182739
STARLINK-5174           
1 54067U 22136S   26041.50792994 -.00000451  00000+0 -10270-4 0  9999
2 54067  53.2176 105.9339 0001505 111.5085 248.6067 15.08843524182745
STARLINK-5222           
1 54068U 22136T   26041.44537410  .00000184  00000+0  29677-4 0  9995
2 54068  53.2170 106.2387 0001524  73.3781 286.7379 15.08842938182732
STARLINK-5181           
1 54070U 22136V   26041.43432323 -.00000263  00000+0  15449-5 0  9996
2 54070  53.2168 106.1700 0001381 105.8204 254.2940 15.08841770182739
STARLINK-5168           
1 54071U 22136W   26041.49689739  .00009109  00000+0  58965-3 0  9993
2 54071  53.2159 105.8516 0001402  91.0224 269.0929 15.08841964182740
STARLINK-5146           
1 54073U 22136Y   26041.42925810 -.00000537  00000+0 -15654-4 0  9998
2 54073  53.2171 101.1575 0001468  79.3872 280.7285 15.08838496182808
STARLINK-5192           
1 54074U 22136Z   26041.49319314  .00000203  00000+0  30825-4 0  9997
2 54074  53.2185 105.8275 0001550 103.7143 256.4021 15.08849343182741
STARLINK-5212           
1 54075U 22136AA  26041.35933250  .00000458  00000+0  46865-4 0  9997
2 54075  53.2185 101.4312 0001966  59.0774 301.0411 15.08840958182798
STARLINK-5201           
1 54076U 22136AB  26041.48318219  .00004306  00000+0  28861-3 0  9995
2 54076  53.2182 106.4599 0001530  87.5475 272.5692 15.08825766182736
STARLINK-5171           
1 54077U 22136AC  26041.37328879  .00001361  00000+0  10358-3 0  9997
2 54077  53.2182  82.3817 0001453  72.5924 287.5227 15.08838569183061
STARLINK-5175           
1 54079U 22136AE  26041.41690686 -.00000502  00000+0 -13443-4 0  9999
2 54079  53.2179  96.7801 0001548  80.1248 279.9918 15.08840857182862
STARLINK-5160           
1 54080U 22136AF  26041.47715885  .00000624  00000+0  57278-4 0  9993
2 54080  53.2176 101.4489 0001464  89.9543 270.1617 15.08840146182803
STARLINK-5210           
1 54082U 22136AH  26041.41322067 -.00001061  00000+0 -48588-4 0  9997
2 54082  53.2183  96.7540 0001404  93.9347 266.1805 15.08836717182867
STARLINK-5178           
1 54083U 22136AJ  26041.46840887  .00000030  00000+0  19959-4 0  9991
2 54083  53.2170  96.3897 0001311  93.6618 266.4524 15.08842222182870
STARLINK-5183           
1 54084U 22136AK  26041.40953476  .00000839  00000+0  70814-4 0  9999
2 54084  53.2183  96.7326 0001104  50.9220 309.1870 15.08841643182865
STARLINK-5166           
1 54085U 22136AL  26041.46567902  .00000589  00000+0  55071-4 0  9991
2 54085  53.2173  96.3698 0001448  80.4181 279.6974 15.08840390182873
STARLINK-5211           
1 54086U 22136AM  26041.40171381 -.00000213  00000+0  47294-5 0  9992
2 54086  53.2167  81.7236 0001568  97.4454 262.6716 15.08832534183077
STARLINK-5184           
1 54087U 22136AN  26041.42787406  .00000819  00000+0  69566-4 0  9992
2 54087  53.2180  96.1453 0001469  91.7124 268.4037 15.08838170182874
STARLINK-5153           
1 54088U 22136AP  26041.40585848 -.00000307  00000+0 -11901-5 0  9992
2 54088  53.2175  96.7102 0001349  65.4318 294.6814 15.08847126182860
STARLINK-5143           
1 54089U 22136AQ  26041.38374214  .00000921  00000+0  75952-4 0  9998
2 54089  53.2195  96.5783 0001402  97.1053 263.0099 15.08836240182864
STARLINK-5177           
1 54090U 22136AR  26041.45367477  .00001444  00000+0  10882-3 0  9992
2 54090  53.2164  96.2960 0001554 100.8594 259.2573 15.08845494182872
STARLINK-5221           
1 54091U 22136AS  26041.35794980  .00001177  00000+0  92006-4 0  9997
2 54091  53.2171  96.4182 0001598  70.0333 290.0831 15.08841330182860
STARLINK-5190           
1 54092U 22136AT  26041.01470100  .00054312  00000+0  56709-3 0  9994
2 54092  53.1807 309.7687 0003248 132.5808 227.5482 15.63981297184891
STARLINK-5213           
1 54093U 22136AU  26041.43892578  .00000694  00000+0  61707-4 0  9997
2 54093  53.2166  96.2039 0001424  90.3475 269.7681 15.08839819182871
STARLINK-5193           
1 54095U 22136AW  26041.43155535 -.00003202  00000+0 -18316-3 0  9991
2 54095  53.2162  96.1617 0001809 151.3709 208.7383 15.08840179182878
STARLINK-5188           
1 54096U 22136AX  26041.44261200 -.00001728  00000+0 -90493-4 0  9998
2 54096  53.2170  96.2273 0001147  96.0929 264.0194 15.08836931182877
STARLINK-5197           
1 54097U 22136AY  26041.45044820 -.00000084  00000+0  12796-4 0  9990
2 54097  53.2168  71.3312 0001656  80.1853 279.9326 15.08845991183226
STARLINK-5217           
1 54098U 22136AZ  26041.42891451  .00000517  00000+0  50567-4 0  9996
2 54098  53.2170  96.8342 0001372  94.4434 265.6715 15.08834314182863
STARLINK-5198           
1 54099U 22136BA  26041.42050789  .00000002  00000+0  18228-4 0  9995
2 54099  53.2169  96.0935 0001560  79.1184 280.9984 15.08839770182873
STARLINK-5185           
1 54100U 22136BB  26041.43524389  .00000157  00000+0  27971-4 0  9997
2 54100  53.2181  96.1841 0001555 100.5040 259.6127 15.08837617182871
STARLINK-5204           
1 54101U 22136BC  26041.36950591  .00000850  00000+0  71481-4 0  9993
2 54101  53.2175  81.5274 0001566  77.9319 282.1849 15.08840417183078
STARLINK-5179           
1 54102U 22136BD  26041.46471936  .00000768  00000+0  66316-4 0  9995
2 54102  53.2175  96.3568 0001337  85.4197 274.6948 15.08839346182875
STARLINK-5200           
1 54103U 22136BE  26041.37085241  .00000014  00000+0  18965-4 0  9997
2 54103  53.2176  76.5455 0001513  97.2560 262.8604 15.08837764183144
STARLINK-5203           
1 54104U 22136BF  26041.34828970 -.00001204  00000+0 -57580-4 0  9999
2 54104  53.2183  61.4219 0001394  79.6280 280.4869 15.08838946183359
COSMOS 2561             
1 54109U 22137A   26041.50012567  .00013578  00000+0  25871-3 0  9992
2 54109  96.9386 105.4019 0011468 127.4012 232.8286 15.48221819186725
ONEWEB-0490             
1 54113U 22138A   26041.29307207 -.00000278  00000+0 -72786-3 0  9994
2 54113  87.9259 330.2234 0001648  79.7892 280.3426 13.19725741160095
ONEWEB-0492             
1 54114U 22138B   26041.31834799  .00000071  00000+0  14563-3 0  9997
2 54114  87.9252 330.2284 0001704  85.7087 274.4240 13.19724530160105
